FLOCK 2K-36             
1 42876U 17042BD  17354.18703493  .00002450  00000-0  74177-4 0  9997
2 42876  96.9952 254.8789 0013933  35.7593 324.4581 15.34982270 24164
FLOCK 2K-35             
1 42877U 17042BE  17354.18652928  .00002755  00000-0  82709-4 0  9992
2 42877  96.9950 254.8772 0013784  35.5710 324.6451 15.35153541 24168
FLOCK 2K-34             
1 42878U 17042BF  17354.51078393  .00002525  00000-0  76180-4 0  9999
2 42878  96.9948 255.1840 0013906  35.2949 324.9213 15.35066411 24217
FLOCK 2K-33             
1 42879U 17042BG  17354.18198667  .00002871  00000-0  86346-4 0  9999
2 42879  96.9949 254.8787 0014076  36.0978 324.1214 15.35055376 24160
FLOCK 2K-28             
1 42880U 17042BH  17354.17117567  .00002922  00000-0  91057-4 0  9992
2 42880  96.9953 254.7566 0014208  36.0949 324.1252 15.33908406 24156
LEMUR-2-ARTFISCHER      
1 42881U 17042BJ  17354.20673737  .00005512  00000-0  16610-3 0  9992
2 42881  96.9976 254.9044 0014832  37.1559 323.0709 15.34595740 24156
FLOCK 2K-27             
1 42882U 17042BK  17354.18093217  .00007343  00000-0  21716-3 0  9996
2 42882  96.9951 254.8860 0014180  36.8077 323.4138 15.35090392 24167
FLOCK 2K-26             
1 42883U 17042BL  17354.17821518  .00002899  00000-0  87162-4 0  9998
2 42883  96.9946 254.8851 0014181  35.0703 325.1472 15.35057622 24169
FLOCK 2K-25             
1 42884U 17042BM  17354.18357939  .00004859  00000-0  14450-3 0  9998
2 42884  96.9946 254.8736 0013950  36.2892 323.9295 15.35086985 24160
FLOCK 2K-20             
1 42885U 17042BN  17354.43767453  .00005104  00000-0  15188-3 0  9996
2 42885  96.9949 255.1373 0014179  33.9656 326.2494 15.35038283 24201
FLOCK 2K-19             
1 42886U 17042BP  17354.44070798  .00004180  00000-0  12477-3 0  9998
2 42886  96.9950 255.1355 0014204  34.5622 325.6543 15.35042255 24205
FLOCK 2K-18             
1 42887U 17042BQ  17354.16823637  .00002578  00000-0  77825-4 0  9994
2 42887  96.9949 254.8979 0014305  34.1259 326.0902 15.35025611 24162
FLOCK 2K-17             
1 42888U 17042BR  17354.36852620  .00002451  00000-0  74146-4 0  9994
2 42888  96.9942 255.0691 0014276  32.7870 327.4257 15.35006713 24193
FLOCK 2K-16             
1 42889U 17042BS  17354.36955164  .00002570  00000-0  77731-4 0  9997
2 42889  96.9948 255.0792 0013909  32.7080 327.5023 15.34979513 24195
FLOCK 2K-15             
1 42890U 17042BT  17354.16671656  .00002374  00000-0  71883-4 0  9992
2 42890  96.9955 254.9104 0014178  33.8139 326.4007 15.35007972 24165
FLOCK 2K-13             
1 42891U 17042BU  17354.37109070  .00001783  00000-0  54601-4 0  9994
2 42891  96.9947 255.0744 0014251  30.2514 329.9550 15.34961049 24196
FLOCK 2K-14             
1 42892U 17042BV  17354.16962484  .00010799  00000-0  31893-3 0  9992
2 42892  96.9945 254.8890 0014175  32.7977 327.4144 15.35020699 24166
FLOCK 2K-12             
1 42893U 17042BW  17354.16375724  .00002642  00000-0  79759-4 0  9990
2 42893  96.9953 254.9089 0014273  34.1974 326.0187 15.35008227 24164
FLOCK 2K-11             
1 42894U 17042BX  17354.17115991  .00003744  00000-0  11207-3 0  9997
2 42894  96.9949 254.8983 0014170  30.4692 329.7373 15.35017729 24168
FLOCK 2K-10             
1 42895U 17042BY  17354.16496390  .00002575  00000-0  77809-4 0  9994
2 42895  96.9948 254.8970 0014260  32.2619 327.9494 15.34993663 24166
FLOCK 2K-09             
1 42896U 17042BZ  17354.16213855  .00006686  00000-0  19810-3 0  9992
2 42896  96.9958 254.9089 0014150  32.1107 328.0997 15.35067587 24336
FLOCK 2K-06             
1 42897U 17042CA  17354.46046545  .00002439  00000-0  73680-4 0  9994
2 42897  96.9948 255.1080 0012873  44.2962 315.9310 15.35070495 24205
SILU-1 (SILKROAD 1)     
1 42903U 17021F   17354.34890675  .00021242  00000-0  21768-3 0  9999
2 42903  42.7802 325.3968 0007410 129.3528  21.0719 15.64507265 21858
FLOCK 3M-1              
1 42995U 17068J   17353.98539166  .00000980  00000-0  51160-4 0  9991
2 42995  97.3442 106.7352 0018995  57.3692 302.9372 15.18062304  7449
FLOCK 3M-3              
1 42996U 17068K   17354.24385259  .00000933  00000-0  48680-4 0  9995
2 42996  97.3398 106.9676 0018354  57.2931 303.0070 15.18223102  7481
FLOCK 3M-4              
1 42997U 17068L   17354.50473316  .00001653  00000-0  83457-4 0  9998
2 42997  97.3611 107.3746 0018108  57.4712 302.8269 15.18345975  7524
FLOCK 3M-2              
1 42998U 17068M   17354.49511102  .00001017  00000-0  52237-4 0  9999
2 42998  97.3511 107.3174 0016289  54.1113 306.1631 15.18607475  7522
ECAMSAT                 
1 43019U 98067NG  17354.55731150  .00005320  00000-0  84436-4 0  9993
2 43019  51.6379 189.0592 0005029 220.7314 139.3301 15.55143643 90735
ASTERIA                 
1 43020U 98067NH  17354.55451718  .00005653  00000-0  88342-4 0  9993
2 43020  51.6382 189.0418 0002437 209.1019 150.9837 15.55434845  4657
DELLINGR (RBLE)         
1 43021U 98067NJ  17354.55789349  .00005152  00000-0  81938-4 0  9996
2 43021  51.6382 189.0641 0002193 206.4225 153.6655 15.55159951  4654
TECHEDSAT 6             
1 43026U 98067NK  17354.52566254  .00053456  00000-0  69597-3 0  9992
2 43026  51.6371 188.8501 0002998 207.1631 152.9205 15.58208732  4558
OSIRIS-3U               
1 43027U 98067NL  17354.16034671  .00022659  00000-0  32365-3 0  9990
2 43027  51.6378 190.9101 0004276 189.0127 171.0788 15.56151753  4472
2017-071E               
1 43041U 17071E   17353.93883312  .00005751  00000-0  16127-3 0  9992
2 43041  51.6378 193.9089 0000810 147.2447 212.8587 15.38073220  4302
2017-071F               
1 43042U 17071F   17354.13744790  .00003145  00000-0  94204-4 0  9990
2 43042  51.6375 192.9846 0005006 344.7004  15.3827 15.37640785  2042
2017-071G               
1 43043U 17071G   17353.94242385  .00003446  00000-0  10220-3 0  9991
2 43043  51.6376 193.9325 0004977 343.8466  16.2358 15.37645497  1981
2017-071H               
1 43044U 17071H   17353.94194707  .00004383  00000-0  12682-3 0  9991
2 43044  51.6376 193.9294 0004807 342.8059  17.2761 15.37722833  1985
2017-071J               
1 43045U 17071J   17354.13418720  .00006083  00000-0  17018-3 0  9995
2 43045  51.6375 192.9636 0003838 332.0957  27.9821 15.38038600  2063
2017-071K               
1 43046U 17071K   17353.93872942  .00003424  00000-0  10020-3 0  9995
2 43046  51.6388 193.9096 0003643 328.4219  31.6546 15.38093226  2031
2017-071L               
1 43047U 17071L   17353.94217445  .00006331  00000-0  17870-3 0  9998
2 43047  51.6379 193.9312 0003293  20.5123 339.5992 15.37687623  2021
2017-071M               
1 43048U 17071M   17353.94209630  .00004173  00000-0  12137-3 0  9999
2 43048  51.6381 193.9308 0003180  20.4875 339.6235 15.37686787  2029
2017-071N               
1 43049U 17071N   17353.94083212  .00003099  00000-0  92447-4 0  9995
2 43049  51.6376 193.9222 0002636  11.7665 348.3380 15.37818870  1986
2017-071P               
1 43050U 17071P   17353.94050630  .00002384  00000-0  73471-4 0  9997
2 43050  51.6384 193.9205 0002479   8.2657 351.8367 15.37848203  1982
2017-071Q               
1 43051U 17071Q   17349.45742660  .00004926  00000-0  14141-3 0  9992
2 43051  51.6385 215.7358 0002160 105.0230 255.0993 15.37679354  1288
2017-071R               
1 43052U 17071R   17353.94042165  .00003444  00000-0  10141-3 0  9995
2 43052  51.6379 193.9200 0002516   8.9610 351.1418 15.37870967  1972
2017-071S               
1 43053U 17071S   17354.52662693  .00004608  00000-0  13279-3 0  9993
2 43053  51.6422 191.0717 0002835 124.4958 235.6116 15.37723705  2077
2017-071T               
1 43054U 17071T   17353.93891375  .00003982  00000-0  11494-3 0  9990
2 43054  51.6377 193.9097 0000774 146.8706 213.2326 15.38051973  1984
